{
  "norad_id": 26605,
  "name": "NAVSTAR 49 (USA 154)",
  "history": [
    {
      "epoch": "2026-03-28T14:45:24.759360",
      "apogee_km": 20643.426197725155,
      "perigee_km": 19719.983001060824,
      "latitude_deg": 48.14190689522448,
      "longitude_deg": 139.527510400163,
      "semi_major_axis_km": 26559.84159939299,
      "eccentricity": 0.0173842,
      "inclination_deg": 55.5786,
      "raan_deg": 98.1349,
      "arg_perigee_deg": 265.9221,
      "mean_anomaly_deg": 84.1981,
      "mean_motion_rev_day": 2.00569338
    }
  ]
}